GEOEYE 1                
1 33331U 08042A   26179.90189871  .00000438  00000+0  91360-4 0  9992
2 33331  98.1335 253.6879 0005132  36.0931 324.0617 14.64636269951866
GOES 14                 
1 35491U 09033A   26179.97363229 -.00000320  00000+0  00000+0 0  9997
2 35491   1.7194  82.9122 0002280  21.3456 298.2505  1.00107335  6707
GAOFEN-8                
1 40701U 15030A   26179.99604087  .00021805  00000+0  44176-3 0  9999
2 40701  97.6899  14.0782 0009589 146.3063 213.8797 15.46382438613278
GAOFEN-9 01             
1 40894U 15047A   26179.93858690  .00000985  00000+0  12689-3 0  9995
2 40894  97.6270 215.0992 0028864 101.0981 259.3481 14.82905661581934
GAOFEN-4                
1 41194U 15083A   26179.54005676 -.00000323  00000+0  00000+0 0  9991
2 41194   0.3860  84.0131 0004263 110.8539  21.8883  1.00269753 38641
GOES 16                 
1 41866U 16071A   26179.92614309 -.00000080  00000+0  00000+0 0  9996
2 41866   0.3698  85.5104 0000606  16.2695  43.9539  1.00272095 35228
GAOFEN-5 01             
1 43461U 18043A   26179.91308569  .00000322  00000+0  76392-4 0  9997
2 43461  98.4576 151.7458 0002839  62.7156 297.4333 14.60613322433402
GAOFEN-6                
1 43484U 18048A   26179.99839601  .00000470  00000+0  75131-4 0  9995
2 43484  98.0896 242.6612 0011742 127.5614 232.6664 14.76375030435130
GEO-KOMPSAT-2A          
1 43823U 18100A   26179.97224562 -.00000332  00000+0  00000+0 0  9999
2 43823   0.0430 129.0252 0002395 321.3321 304.9795  1.00271731 27743
GAOFEN-3 03             
1 52200U 22035A   26179.95455788 -.00000146  00000+0 -31144-4 0  9996
2 52200  98.4058 188.3640 0001537  99.3171 260.8193 14.42215985222546
