{
 "generated_at": "2026-06-29T09:26:28Z",
 "sources": [
  {
   "name": "CelesTrak",
   "url": "https://celestrak.org/NORAD/elements/",
   "license": "frei verfügbar; Attribution. Ursprünglich USSPACECOM/Space-Track."
  },
  {
   "name": "GCAT (J. McDowell, planet4589.org)",
   "url": "https://planet4589.org/space/gcat/",
   "license": "CC-BY 4.0"
  }
 ],
 "satellites": [
  {
   "norad": 52200,
   "name": "GAOFEN-3 03",
   "intl": "2022-035A",
   "group": "sar",
   "gcat": {
    "class": "C",
    "category": "IMG-R",
    "owner": "GWHYZ",
    "state": "CN"
   },
   "omm": {
    "OBJECT_NAME": "GAOFEN-3 03",
    "OBJECT_ID": "2022-035A",
    "EPOCH": "2026-06-28T22:54:33.800832",
    "MEAN_MOTION": 14.42215985,
    "ECCENTRICITY": 0.00015374,
    "INCLINATION": 98.4058,
    "RA_OF_ASC_NODE": 188.364,
    "ARG_OF_PERICENTER": 99.3171,
    "MEAN_ANOMALY": 260.8193,
    "EPHEMERIS_TYPE": 0,
    "CLASSIFICATION_TYPE": "U",
    "NORAD_CAT_ID": 52200,
    "ELEMENT_SET_NO": 999,
    "REV_AT_EPOCH": 22254,
    "BSTAR": -0.000031144004,
    "MEAN_MOTION_DOT": -0.00000146,
    "MEAN_MOTION_DDOT": 0
   }
  },
  {
   "norad": 41194,
   "name": "GAOFEN-4",
   "intl": "2015-083A",
   "group": "resource",
   "gcat": {
    "class": "C",
    "category": "IMG",
    "owner": "CNSAS",
    "state": "CN"
   },
   "omm": {
    "OBJECT_NAME": "GAOFEN-4",
    "OBJECT_ID": "2015-083A",
    "EPOCH": "2026-06-28T12:57:40.904064",
    "MEAN_MOTION": 1.00269753,
    "ECCENTRICITY": 0.00042636,
    "INCLINATION": 0.386,
    "RA_OF_ASC_NODE": 84.0131,
    "ARG_OF_PERICENTER": 110.8539,
    "MEAN_ANOMALY": 21.8883,
    "EPHEMERIS_TYPE": 0,
    "CLASSIFICATION_TYPE": "U",
    "NORAD_CAT_ID": 41194,
    "ELEMENT_SET_NO": 999,
    "REV_AT_EPOCH": 3864,
    "BSTAR": 0,
    "MEAN_MOTION_DOT": -0.00000323,
    "MEAN_MOTION_DDOT": 0
   }
  },
  {
   "norad": 43461,
   "name": "GAOFEN-5 01",
   "intl": "2018-043A",
   "group": "resource",
   "gcat": {
    "class": null,
    "category": null,
    "owner": null,
    "state": null
   },
   "omm": {
    "OBJECT_NAME": "GAOFEN-5 01",
    "OBJECT_ID": "2018-043A",
    "EPOCH": "2026-06-28T21:54:50.603616",
    "MEAN_MOTION": 14.60613322,
    "ECCENTRICITY": 0.00028399,
    "INCLINATION": 98.4576,
    "RA_OF_ASC_NODE": 151.7458,
    "ARG_OF_PERICENTER": 62.7156,
    "MEAN_ANOMALY": 297.4333,
    "EPHEMERIS_TYPE": 0,
    "CLASSIFICATION_TYPE": "U",
    "NORAD_CAT_ID": 43461,
    "ELEMENT_SET_NO": 999,
    "REV_AT_EPOCH": 43340,
    "BSTAR": 0.000076392115,
    "MEAN_MOTION_DOT": 0.00000322,
    "MEAN_MOTION_DDOT": 0
   }
  },
  {
   "norad": 43484,
   "name": "GAOFEN-6",
   "intl": "2018-048A",
   "group": "resource",
   "gcat": {
    "class": "C",
    "category": "IMG",
    "owner": "CNSAS",
    "state": "CN"
   },
   "omm": {
    "OBJECT_NAME": "GAOFEN-6",
    "OBJECT_ID": "2018-048A",
    "EPOCH": "2026-06-28T23:57:41.415264",
    "MEAN_MOTION": 14.7637503,
    "ECCENTRICITY": 0.00117428,
    "INCLINATION": 98.0896,
    "RA_OF_ASC_NODE": 242.6612,
    "ARG_OF_PERICENTER": 127.5614,
    "MEAN_ANOMALY": 232.6664,
    "EPHEMERIS_TYPE": 0,
    "CLASSIFICATION_TYPE": "U",
    "NORAD_CAT_ID": 43484,
    "ELEMENT_SET_NO": 999,
    "REV_AT_EPOCH": 43513,
    "BSTAR": 0.000075131083,
    "MEAN_MOTION_DOT": 0.0000047,
    "MEAN_MOTION_DDOT": 0
   }
  },
  {
   "norad": 40701,
   "name": "GAOFEN-8",
   "intl": "2015-030A",
   "group": "resource",
   "gcat": {
    "class": "D",
    "category": "IMG",
    "owner": "ZZB",
    "state": "CN"
   },
   "omm": {
    "OBJECT_NAME": "GAOFEN-8",
    "OBJECT_ID": "2015-030A",
    "EPOCH": "2026-06-28T23:54:17.931168",
    "MEAN_MOTION": 15.46382438,
    "ECCENTRICITY": 0.00095891,
    "INCLINATION": 97.6899,
    "RA_OF_ASC_NODE": 14.0782,
    "ARG_OF_PERICENTER": 146.3063,
    "MEAN_ANOMALY": 213.8797,
    "EPHEMERIS_TYPE": 0,
    "CLASSIFICATION_TYPE": "U",
    "NORAD_CAT_ID": 40701,
    "ELEMENT_SET_NO": 999,
    "REV_AT_EPOCH": 61327,
    "BSTAR": 0.00044176315,
    "MEAN_MOTION_DOT": 0.00021805,
    "MEAN_MOTION_DDOT": 0
   }
  },
  {
   "norad": 40894,
   "name": "GAOFEN-9 01",
   "intl": "2015-047A",
   "group": "resource",
   "gcat": {
    "class": null,
    "category": null,
    "owner": null,
    "state": null
   },
   "omm": {
    "OBJECT_NAME": "GAOFEN-9 01",
    "OBJECT_ID": "2015-047A",
    "EPOCH": "2026-06-28T22:31:33.908160",
    "MEAN_MOTION": 14.82905661,
    "ECCENTRICITY": 0.00288646,
    "INCLINATION": 97.627,
    "RA_OF_ASC_NODE": 215.0992,
    "ARG_OF_PERICENTER": 101.0981,
    "MEAN_ANOMALY": 259.3481,
    "EPHEMERIS_TYPE": 0,
    "CLASSIFICATION_TYPE": "U",
    "NORAD_CAT_ID": 40894,
    "ELEMENT_SET_NO": 999,
    "REV_AT_EPOCH": 58193,
    "BSTAR": 0.00012689082,
    "MEAN_MOTION_DOT": 0.00000985,
    "MEAN_MOTION_DDOT": 0
   }
  },
  {
   "norad": 43823,
   "name": "GEO-KOMPSAT-2A",
   "intl": "2018-100A",
   "group": "weather",
   "gcat": {
    "class": "C",
    "category": "MET",
    "owner": "KARI",
    "state": "KR"
   },
   "omm": {
    "OBJECT_NAME": "GEO-KOMPSAT-2A",
    "OBJECT_ID": "2018-100A",
    "EPOCH": "2026-06-28T23:20:02.021568",
    "MEAN_MOTION": 1.00271731,
    "ECCENTRICITY": 0.00023954,
    "INCLINATION": 0.043,
    "RA_OF_ASC_NODE": 129.0252,
    "ARG_OF_PERICENTER": 321.3321,
    "MEAN_ANOMALY": 304.9795,
    "EPHEMERIS_TYPE": 0,
    "CLASSIFICATION_TYPE": "U",
    "NORAD_CAT_ID": 43823,
    "ELEMENT_SET_NO": 999,
    "REV_AT_EPOCH": 2774,
    "BSTAR": 0,
    "MEAN_MOTION_DOT": -0.00000332,
    "MEAN_MOTION_DDOT": 0
   }
  },
  {
   "norad": 33331,
   "name": "GEOEYE 1",
   "intl": "2008-042A",
   "group": "resource",
   "gcat": {
    "class": null,
    "category": "IMG",
    "owner": "GEYE",
    "state": "US"
   },
   "omm": {
    "OBJECT_NAME": "GEOEYE 1",
    "OBJECT_ID": "2008-042A",
    "EPOCH": "2026-06-28T21:38:44.048544",
    "MEAN_MOTION": 14.64636269,
    "ECCENTRICITY": 0.00051327,
    "INCLINATION": 98.1335,
    "RA_OF_ASC_NODE": 253.6879,
    "ARG_OF_PERICENTER": 36.0931,
    "MEAN_ANOMALY": 324.0617,
    "EPHEMERIS_TYPE": 0,
    "CLASSIFICATION_TYPE": "U",
    "NORAD_CAT_ID": 33331,
    "ELEMENT_SET_NO": 999,
    "REV_AT_EPOCH": 95186,
    "BSTAR": 0.000091360273,
    "MEAN_MOTION_DOT": 0.00000438,
    "MEAN_MOTION_DDOT": 0
   }
  },
  {
   "norad": 35491,
   "name": "GOES 14",
   "intl": "2009-033A",
   "group": "weather",
   "gcat": {
    "class": "C",
    "category": "MET",
    "owner": "NOAA",
    "state": "US"
   },
   "omm": {
    "OBJECT_NAME": "GOES 14",
    "OBJECT_ID": "2009-033A",
    "EPOCH": "2026-06-28T23:22:01.829856",
    "MEAN_MOTION": 1.00107335,
    "ECCENTRICITY": 0.00022801,
    "INCLINATION": 1.7194,
    "RA_OF_ASC_NODE": 82.9122,
    "ARG_OF_PERICENTER": 21.3456,
    "MEAN_ANOMALY": 298.2505,
    "EPHEMERIS_TYPE": 0,
    "CLASSIFICATION_TYPE": "U",
    "NORAD_CAT_ID": 35491,
    "ELEMENT_SET_NO": 999,
    "REV_AT_EPOCH": 670,
    "BSTAR": 0,
    "MEAN_MOTION_DOT": -0.0000032,
    "MEAN_MOTION_DDOT": 0
   }
  },
  {
   "norad": 41866,
   "name": "GOES 16",
   "intl": "2016-071A",
   "group": "weather",
   "gcat": {
    "class": "C",
    "category": "MET",
    "owner": "NOAA",
    "state": "US"
   },
   "omm": {
    "OBJECT_NAME": "GOES 16",
    "OBJECT_ID": "2016-071A",
    "EPOCH": "2026-06-28T22:13:38.762976",
    "MEAN_MOTION": 1.00272095,
    "ECCENTRICITY": 0.00006068,
    "INCLINATION": 0.3698,
    "RA_OF_ASC_NODE": 85.5104,
    "ARG_OF_PERICENTER": 16.2695,
    "MEAN_ANOMALY": 43.9539,
    "EPHEMERIS_TYPE": 0,
    "CLASSIFICATION_TYPE": "U",
    "NORAD_CAT_ID": 41866,
    "ELEMENT_SET_NO": 999,
    "REV_AT_EPOCH": 3522,
    "BSTAR": 0,
    "MEAN_MOTION_DOT": -8e-7,
    "MEAN_MOTION_DDOT": 0
   }
  }
 ]
}
